[
    {
        "Altitude(m)": 624792.7909868762,
        "Argument of Periapsis(deg)": 0.0,
        "Eccentricity": 0.0,
        "Inclination(deg)": 60.0,
        "Latitude(deg)": -59.14714491510408,
        "Longitude(deg)": -25.973453435113754,
        "Mean Anomaly(deg)": -98.18179999999998,
        "RAAN(deg)": 180.0,
        "Satellite Name": "Test1 808",
        "Satellite Number": 808,
        "Semi-Major Axis(m)": 6980739.136638005,
        "Time(s)": 0
    },
    {
        "Altitude(m)": 624842.1824077268,
        "Argument of Periapsis(deg)": 0.00010418945913296404,
        "Eccentricity": 0.0,
        "Inclination(deg)": 60.0,
        "Latitude(deg)": -59.289226793389254,
        "Longitude(deg)": -24.843946685830662,
        "Mean Anomaly(deg)": -97.56169385453813,
        "RAAN(deg)": 179.99957995086024,
        "Satellite Name": "Test1 808",
        "Satellite Number": 808,
        "Semi-Major Axis(m)": 6980739.136638005,
        "Time(s)": 10
    },
    {
        "Altitude(m)": 624887.7495646687,
        "Argument of Periapsis(deg)": 0.0002083789182659281,
        "Eccentricity": 0.0,
        "Inclination(deg)": 60.0,
        "Latitude(deg)": -59.420697784867016,
        "Longitude(deg)": -23.705019458302715,
        "Mean Anomaly(deg)": -96.94158770907632,
        "RAAN(deg)": 179.99915990172053,
        "Satellite Name": "Test1 808",
        "Satellite Number": 808,
        "Semi-Major Axis(m)": 6980739.136638005,
        "Time(s)": 20
    },
    {
        "Altitude(m)": 624929.4744946611,
        "Argument of Periapsis(deg)": 0.00031256837739889213,
        "Eccentricity": 0.0,
        "Inclination(deg)": 60.0,
        "Latitude(deg)": -59.541420589314804,
        "Longitude(deg)": -22.557294066797287,
        "Mean Anomaly(deg)": -96.32148156361447,
        "RAAN(deg)": 179.99873985258077,
        "Satellite Name": "Test1 808",
        "Satellite Number": 808,
        "Semi-Major Axis(m)": 6980739.136638005,
        "Time(s)": 30
    },
    {
        "Altitude(m)": 624967.340745824,
        "Argument of Periapsis(deg)": 0.0004167578365318562,
        "Eccentricity": 0.0,
        "Inclination(deg)": 60.0,
        "Latitude(deg)": -59.65126704007456,
        "Longitude(deg)": -21.40142781028897,
        "Mean Anomaly(deg)": -95.70137541815268,
        "RAAN(deg)": 179.99831980344103,
        "Satellite Name": "Test1 808",
        "Satellite Number": 808,
        "Semi-Major Axis(m)": 6980739.136638005,
        "Time(s)": 40
    },
    {
        "Altitude(m)": 625001.3333843882,
        "Argument of Periapsis(deg)": 0.0005209472956648203,
        "Eccentricity": 0.0,
        "Inclination(deg)": 60.0,
        "Latitude(deg)": -59.7501187431431,
        "Longitude(deg)": -20.238112135674704,
        "Mean Anomaly(deg)": -95.08126927269083,
        "RAAN(deg)": 179.99789975430127,
        "Satellite Name": "Test1 808",
        "Satellite Number": 808,
        "Semi-Major Axis(m)": 6980739.136638005,
        "Time(s)": 50
    },
    {
        "Altitude(m)": 625031.4390009763,
        "Argument of Periapsis(deg)": 0.0006251367547977843,
        "Eccentricity": 0.0,
        "Inclination(deg)": 60.0,
        "Latitude(deg)": -59.83786768318468,
        "Longitude(deg)": -19.06806996341417,
        "Mean Anomaly(deg)": -94.46116312722906,
        "RAAN(deg)": 179.99747970516157,
        "Satellite Name": "Test1 808",
        "Satellite Number": 808,
        "Semi-Major Axis(m)": 6980739.136638005,
        "Time(s)": 60
    },
    {
        "Altitude(m)": 625057.6457162614,
        "Argument of Periapsis(deg)": 0.0007293262139307483,
        "Eccentricity": 0.0,
        "Inclination(deg)": 60.0,
        "Latitude(deg)": -59.914416789632945,
        "Longitude(deg)": -17.89205269870732,
        "Mean Anomaly(deg)": -93.84105698176721,
        "RAAN(deg)": 179.9970596560218,
        "Satellite Name": "Test1 808",
        "Satellite Number": 808,
        "Semi-Major Axis(m)": 6980739.136638005,
        "Time(s)": 70
    },
    {
        "Altitude(m)": 625079.9431859637,
        "Argument of Periapsis(deg)": 0.0008335156730637124,
        "Eccentricity": 0.0,
        "Inclination(deg)": 60.0,
        "Latitude(deg)": -59.97968045625412,
        "Longitude(deg)": -16.710838456990594,
        "Mean Anomaly(deg)": -93.22095083630536,
        "RAAN(deg)": 179.99663960688207,
        "Satellite Name": "Test1 808",
        "Satellite Number": 808,
        "Semi-Major Axis(m)": 6980739.136638005,
        "Time(s)": 80
    },
    {
        "Altitude(m)": 625098.3226052128,
        "Argument of Periapsis(deg)": 0.0009377051321966765,
        "Eccentricity": 0.0,
        "Inclination(deg)": 60.0,
        "Latitude(deg)": -60.03358500788977,
        "Longitude(deg)": -15.525228499399743,
        "Mean Anomaly(deg)": -92.60084469084352,
        "RAAN(deg)": 179.9962195577423,
        "Satellite Name": "Test1 808",
        "Satellite Number": 808,
        "Semi-Major Axis(m)": 6980739.136638005,
        "Time(s)": 90
    },
    {
        "Altitude(m)": 625112.7767122429,
        "Argument of Periapsis(deg)": 0.0010418945913296407,
        "Eccentricity": 0.0,
        "Inclination(deg)": 60.0,
        "Latitude(deg)": -60.07606910858974,
        "Longitude(deg)": -14.336043417774764,
        "Mean Anomaly(deg)": -91.9807385453817,
        "RAAN(deg)": 179.9957995086026,
        "Satellite Name": "Test1 808",
        "Satellite Number": 808,
        "Semi-Major Axis(m)": 6980739.136638005,
        "Time(s)": 100
    },
    {
        "Altitude(m)": 625123.2997914613,
        "Argument of Periapsis(deg)": 0.0011460840504626045,
        "Eccentricity": 0.0,
        "Inclination(deg)": 60.0,
        "Latitude(deg)": -60.1070841059552,
        "Longitude(deg)": -13.144120613718634,
        "Mean Anomaly(deg)": -91.36063239991985,
        "RAAN(deg)": 179.9953794594628,
        "Satellite Name": "Test1 808",
        "Satellite Number": 808,
        "Semi-Major Axis(m)": 6980739.136638005,
        "Time(s)": 110
    },
    {
        "Altitude(m)": 625129.8876758531,
        "Argument of Periapsis(deg)": 0.0012502735095955685,
        "Eccentricity": 0.0,
        "Inclination(deg)": 60.0,
        "Latitude(deg)": -60.12659430723113,
        "Longitude(deg)": -11.950310082028945,
        "Mean Anomaly(deg)": -90.740526254458,
        "RAAN(deg)": 179.99495941032308,
        "Satellite Name": "Test1 808",
        "Satellite Number": 808,
        "Semi-Major Axis(m)": 6980739.136638005,
        "Time(s)": 120
    },
    {
        "Altitude(m)": 625132.5377487422,
        "Argument of Periapsis(deg)": 0.0013544629687285324,
        "Eccentricity": 0.0,
        "Inclination(deg)": 60.0,
        "Latitude(deg)": -60.13457718352315,
        "Longitude(deg)": -10.755470051223993,
        "Mean Anomaly(deg)": -90.12042010899621,
        "RAAN(deg)": 179.99453936118334,
        "Satellite Name": "Test1 808",
        "Satellite Number": 808,
        "Semi-Major Axis(m)": 6980739.136638005,
        "Time(s)": 130
    },
    {
        "Altitude(m)": 625131.2489448852,
        "Argument of Periapsis(deg)": 0.0014586524278614966,
        "Eccentricity": 0.0,
        "Inclination(deg)": 60.0,
        "Latitude(deg)": -60.13102349942713,
        "Longitude(deg)": -9.560464036889185,
        "Mean Anomaly(deg)": -89.50031396353434,
        "RAAN(deg)": 179.9941193120436,
        "Satellite Name": "Test1 808",
        "Satellite Number": 808,
        "Semi-Major Axis(m)": 6980739.136638005,
        "Time(s)": 140
    },
    {
        "Altitude(m)": 625126.0217509267,
        "Argument of Periapsis(deg)": 0.0015628418869944607,
        "Eccentricity": 0.0,
        "Inclination(deg)": 60.0,
        "Latitude(deg)": -60.11593736632965,
        "Longitude(deg)": -8.366156327074771,
        "Mean Anomaly(deg)": -88.88020781807258,
        "RAAN(deg)": 179.99369926290385,
        "Satellite Name": "Test1 808",
        "Satellite Number": 808,
        "Semi-Major Axis(m)": 6980739.136638005,
        "Time(s)": 150
    },
    {
        "Altitude(m)": 625116.8582052045,
        "Argument of Periapsis(deg)": 0.0016670313461274247,
        "Eccentricity": 0.0,
        "Inclination(deg)": 60.0,
        "Latitude(deg)": -60.089336218664926,
        "Longitude(deg)": -7.173407458775463,
        "Mean Anomaly(deg)": -88.2601016726107,
        "RAAN(deg)": 179.9932792137641,
        "Satellite Name": "Test1 808",
        "Satellite Number": 808,
        "Semi-Major Axis(m)": 6980739.136638005,
        "Time(s)": 160
    },
    {
        "Altitude(m)": 625103.761896877,
        "Argument of Periapsis(deg)": 0.0017712208052603888,
        "Eccentricity": 0.0,
        "Inclination(deg)": 60.0,
        "Latitude(deg)": -60.05125071345062,
        "Longitude(deg)": -5.983071244723538,
        "Mean Anomaly(deg)": -87.6399955271489,
        "RAAN(deg)": 179.99285916462438,
        "Satellite Name": "Test1 808",
        "Satellite Number": 808,
        "Semi-Major Axis(m)": 6980739.136638005,
        "Time(s)": 170
    },
    {
        "Altitude(m)": 625086.7379644369,
        "Argument of Periapsis(deg)": 0.001875410264393353,
        "Eccentricity": 0.0,
        "Inclination(deg)": 60.0,
        "Latitude(deg)": -60.00172455444563,
        "Longitude(deg)": -4.795990370286443,
        "Mean Anomaly(deg)": -87.01988938168708,
        "RAAN(deg)": 179.99243911548464,
        "Satellite Name": "Test1 808",
        "Satellite Number": 808,
        "Semi-Major Axis(m)": 6980739.136638005,
        "Time(s)": 180
    },
    {
        "Altitude(m)": 625065.7930935415,
        "Argument of Periapsis(deg)": 0.0019795997235263173,
        "Eccentricity": 0.0,
        "Inclination(deg)": 60.0,
        "Latitude(deg)": -59.94081424327811,
        "Longitude(deg)": -3.6129921171263795,
        "Mean Anomaly(deg)": -86.39978323622522,
        "RAAN(deg)": 179.99201906634488,
        "Satellite Name": "Test1 808",
        "Satellite Number": 808,
        "Semi-Major Axis(m)": 6980739.136638005,
        "Time(s)": 190
    }
]